XRISM                   
1 57800U 23137A   23263.10238073  .00005408  00000+0  44142-3 0  9990
2 57800  31.0038 293.6418 0009891  46.9546 313.1916 14.97921585  1962
